EUTELSAT HOTBIRD 13F    
1 54048U 22134A   26191.64071345  .00000096  00000+0  00000+0 0  9995
2 54048   0.0495 289.4789 0001918  65.0632 177.6796  1.00271235 13614
LDPE-2                  
1 54219U 22144A   26191.68277549  .00000057  00000+0  00000+0 0  9991
2 54219   5.6669  63.4529 0002410 110.3244 225.6596  1.00542282 12075
EUTELSAT HOTBIRD 13G    
1 54225U 22146A   26191.64071345  .00000096  00000+0  00000+0 0  9995
2 54225   0.0550 216.9214 0002110 327.8955 347.3949  1.00270796  7703
ZHONGXING-19            
1 54230U 22148A   26191.74176661 -.00000073  00000+0  00000+0 0  9997
2 54230   0.0229 286.9823 0002942 210.8108 221.0925  1.00270509 13610
GALAXY 31 (G-31)        
1 54243U 22153A   26191.68554882  .00000000  00000+0  00000+0 0  9994
2 54243   0.0205  47.8911 0000922  75.7384 290.7675  1.00269899  7360
GALAXY 32 (G-32)        
1 54244U 22153B   26191.26376478 -.00000163  00000+0  00000+0 0  9993
2 54244   0.0095  29.5174 0001507  17.2587 245.3708  1.00271315 13379
EUTELSAT 10B            
1 54259U 22157A   26190.57067573  .00000081  00000+0  00000+0 0  9997
2 54259   0.0611  95.8495 0001939  19.2550  27.8360  1.00268864 13251
GALAXY 35 (G-35)        
1 54741U 22170A   26191.62252681  .00000000  00000+0  00000+0 0  9992
2 54741   0.0172  35.5452 0001858  80.5584 303.4466  1.00269569 13120
GALAXY 36 (G-36)        
1 54742U 22170B   26191.62052002 -.00000176  00000+0  00000+0 0  9993
2 54742   0.0266 116.5098 0002402 342.7513 323.6696  1.00271427 13004
METEOSAT-12 (MTG-I1)    
1 54743U 22170C   26191.85195234  .00000000  00000+0  00000+0 0  9999
2 54743   0.7204  18.9176 0003817  83.0068 133.2904  1.00266872 13215
SHIJIAN-23 (SJ-23)      
1 55131U 23002A   26191.66440205 -.00000337  00000+0  00000+0 0  9990
2 55131   3.7747  78.0177 0003409 270.6720 311.3478  1.00078758 12742
APSTAR-6E               
1 55239U 23005A   26191.52213385 -.00000308  00000+0  00000+0 0  9992
2 55239   0.0521 237.6798 0001847 329.8122  42.9410  1.00270753 18928
USA 342                 
1 55263U 23008A   26190.28864118  .00000000  00000+0  00000+0 0  9998
2 55263   0.0052 352.2306 0000262   7.3445  55.4773  1.00269378 12734
LDPE-3A                 
1 55264U 23008B   26191.81156647 -.00000269  00000+0  00000+0 0  9998
2 55264   2.4065  81.3724 0001520  78.5707 216.4241  0.99151219 12042
ELEKTRO-L 4             
1 55506U 23016A   26191.73765862 -.00000049  00000+0  00000+0 0  9998
2 55506   0.1061 130.0890 0001223  47.1026 182.8069  1.00272302 12565
AMAZONAS NEXUS          
1 55508U 23017A   26190.67543002 -.00000270  00000+0  00000+0 0  9999
2 55508   0.0345  40.6573 0004614  43.4687  25.6403  1.00269698  7276
ZHONGXING-26            
1 55686U 23023A   26191.87681178 -.00000345  00000+0  00000+0 0  9996
2 55686   0.0659  71.0655 0003294  29.0933 269.3690  1.00272460 12460
LUCH-5X (OLYMP-K 2)     
1 55841U 23031A   26191.72173648  .00000042  00000+0  00000+0 0  9993
2 55841   0.0310  93.2143 0000888 154.0165   3.2099  1.00271731 12173
GAOFEN-13 02            
1 55912U 23036A   26191.81009315 -.00000210  00000+0  00000+0 0  9994
2 55912   1.0261   3.9909 0003718 337.2830  27.2666  1.00275282 12323
SES-18                  
1 55970U 23038A   26191.61774669 -.00000091  00000+0  00000+0 0  9996
2 55970   0.0501 266.0938 0000676 304.9519 196.7892  1.00271386 12337
SES-19                  
1 55971U 23038B   26191.68277549  .00000097  00000+0  00000+0 0  9994
2 55971   0.0242 306.4911 0001635 174.8444 278.1689  1.00272323 12327
INTELSAT 40E (IS-40E)   
1 56174U 23052A   26191.26376478 -.00000163  00000+0  00000+0 0  9996
2 56174   0.0168  71.7954 0002213  71.2130 149.1372  1.00271727 12057
VIASAT-3 F1             
1 56370U 23060A   26191.62060669  .00000000  00000+0  00000+0 0  9994
2 56370   0.0175  19.3121 0001055  91.5375 312.1386  1.00268997 11664
ARCTURUS                
1 56371U 23060B   26191.87065840 -.00000305  00000+0  00000+0 0  9997
2 56371   2.8338  79.6474 0000741 134.2398 122.3098  1.00596412 11697
GS-1                    
1 56372U 23060C   26191.79847976 -.00000217  00000+0  00000+0 0  9999
2 56372   2.7847  79.5544 0003476 281.4869 304.4925  1.00267978  7773
BEIDOU-3 G4             
1 56564U 23066A   26191.87975846 -.00000272  00000+0  00000+0 0  9996
2 56564   0.4641 337.6153 0004865 187.9773 219.9515  1.00274046 11633
ARABSAT-7B (BADR-8)     
1 56757U 23075A   26191.05739304  .00000156  00000+0  00000+0 0  9997
2 56757   0.0719  28.6471 0003476   2.0078 303.9941  1.00271042 11349
NVS-01 (IRNSS-1J)       
1 56759U 23076A   26191.87767845 -.00000326  00000+0  00000+0 0  9991
2 56759   2.1126 243.2933 0003492   7.3281 123.6454  1.00266738 11359
NUSANTARA TIGA (SATRIA) 
1 57045U 23086A   26191.28447437 -.00000224  00000+0  00000+0 0  9995
2 57045   0.0339   8.7255 0002767 336.1803 191.7243  1.00272962  9994
H2SAT (HEINRICH HERTZ)  
1 57213U 23093A   26191.06798597  .00000014  00000+0  00000+0 0  9998
2 57213   0.0175 102.3909 0000798  32.1109 178.6751  1.00273286 11148
SYRACUSE 4B             
1 57214U 23093B   26191.20914350 -.00000043  00000+0  00000+0 0  9995
2 57214   0.0032 107.9864 0000460 123.6281 125.3494  1.00270888  7193
