OBJECT_NAME,OBJECT_ID,EPOCH,MEAN_MOTION,ECCENTRICITY,INCLINATION,RA_OF_ASC_NODE,ARG_OF_PERICENTER,MEAN_ANOMALY,EPHEMERIS_TYPE,CLASSIFICATION_TYPE,NORAD_CAT_ID,ELEMENT_SET_NO,REV_AT_EPOCH,BSTAR,MEAN_MOTION_DOT,MEAN_MOTION_DDOT
EUTELSAT HOTBIRD 13F,2022-134A,2026-07-10T15:22:37.642080,1.00271235,.0001918,0.0495,289.4789,65.0632,177.6796,0,U,54048,999,1361,0,.96E-6,0
LDPE-2,2022-144A,2026-07-10T16:23:11.802336,1.00542282,.000241,5.6669,63.4529,110.3244,225.6596,0,U,54219,999,1207,0,.57E-6,0
EUTELSAT HOTBIRD 13G,2022-146A,2026-07-10T15:22:37.642080,1.00270796,.000211,0.0550,216.9214,327.8955,347.3949,0,U,54225,999,770,0,.96E-6,0
ZHONGXING-19,2022-148A,2026-07-10T17:48:08.635104,1.00270509,.0002942,0.0229,286.9823,210.8108,221.0925,0,U,54230,999,1361,0,-.73E-6,0
GALAXY 31 (G-31),2022-153A,2026-07-10T16:27:11.418048,1.00269899,.0000922,0.0205,47.8911,75.7384,290.7675,0,U,54243,999,736,0,0,0
GALAXY 32 (G-32),2022-153B,2026-07-10T06:19:49.276992,1.00271315,.00015071,0.0095,29.5174,17.2587,245.3708,0,U,54244,999,1337,0,-.163E-5,0
EUTELSAT 10B,2022-157A,2026-07-09T13:41:46.383072,1.00268864,.00019391,0.0611,95.8495,19.2550,27.8360,0,U,54259,999,1325,0,.81E-6,0
GALAXY 35 (G-35),2022-170A,2026-07-10T14:56:26.316384,1.00269569,.0001858,0.0172,35.5452,80.5584,303.4466,0,U,54741,999,1312,0,0,0
GALAXY 36 (G-36),2022-170B,2026-07-10T14:53:32.929728,1.00271427,.0002402,0.0266,116.5098,342.7513,323.6696,0,U,54742,999,1300,0,-.176E-5,0
METEOSAT-12 (MTG-I1),2022-170C,2026-07-10T20:26:48.682176,1.00266872,.0003817,0.7204,18.9176,83.0068,133.2904,0,U,54743,999,1321,0,0,0
SHIJIAN-23 (SJ-23),2023-002A,2026-07-10T15:56:44.337120,1.00078758,.0003409,3.7747,78.0177,270.6720,311.3478,0,U,55131,999,1274,0,-.337E-5,0
APSTAR-6E,2023-005A,2026-07-10T12:31:52.364640,1.00270753,.00018473,0.0521,237.6798,329.8122,42.9410,0,U,55239,999,1892,0,-.308E-5,0
USA 342,2023-008A,2026-07-09T06:55:38.597952,1.00269378,.0000262,0.0052,352.2306,7.3445,55.4773,0,U,55263,999,1273,0,0,0
LDPE-3A,2023-008B,2026-07-10T19:28:39.343008,0.99151219,.000152,2.4065,81.3724,78.5707,216.4241,0,U,55264,999,1204,0,-.269E-5,0
ELEKTRO-L 4,2023-016A,2026-07-10T17:42:13.704768,1.00272302,.0001223,0.1061,130.0890,47.1026,182.8069,0,U,55506,999,1256,0,-.49E-6,0
AMAZONAS NEXUS,2023-017A,2026-07-09T16:12:37.153728,1.00269698,.00046145,0.0345,40.6573,43.4687,25.6403,0,U,55508,999,727,0,-.27E-5,0
ZHONGXING-26,2023-023A,2026-07-10T21:02:36.537792,1.00272460,.0003294,0.0659,71.0655,29.0933,269.3690,0,U,55686,999,1246,0,-.345E-5,0
LUCH-5X (OLYMP-K 2),2023-031A,2026-07-10T17:19:18.031872,1.00271731,.0000888,0.0310,93.2143,154.0165,3.2099,0,U,55841,999,1217,0,.42E-6,0
GAOFEN-13 02,2023-036A,2026-07-10T19:26:32.048160,1.00275282,.0003718,1.0261,3.9909,337.2830,27.2666,0,U,55912,999,1232,0,-.21E-5,0
SES-18,2023-038A,2026-07-10T14:49:33.314016,1.00271386,.0000676,0.0501,266.0938,304.9519,196.7892,0,U,55970,999,1233,0,-.91E-6,0
SES-19,2023-038B,2026-07-10T16:23:11.802336,1.00272323,.0001635,0.0242,306.4911,174.8444,278.1689,0,U,55971,999,1232,0,.97E-6,0
INTELSAT 40E (IS-40E),2023-052A,2026-07-10T06:19:49.276992,1.00271727,.00022131,0.0168,71.7954,71.2130,149.1372,0,U,56174,999,1205,0,-.163E-5,0
VIASAT-3 F1,2023-060A,2026-07-10T14:53:40.418016,1.00268997,.0001055,0.0175,19.3121,91.5375,312.1386,0,U,56370,999,1166,0,0,0
ARCTURUS,2023-060B,2026-07-10T20:53:44.885760,1.00596412,.0000741,2.8338,79.6474,134.2398,122.3098,0,U,56371,999,1169,0,-.305E-5,0
GS-1,2023-060C,2026-07-10T19:09:48.651264,1.00267978,.0003476,2.7847,79.5544,281.4869,304.4925,0,U,56372,999,777,0,-.217E-5,0
BEIDOU-3 G4,2023-066A,2026-07-10T21:06:51.130944,1.00274046,.0004865,0.4641,337.6153,187.9773,219.9515,0,U,56564,999,1163,0,-.272E-5,0
ARABSAT-7B (BADR-8),2023-075A,2026-07-10T01:22:38.758656,1.00271042,.00034764,0.0719,28.6471,2.0078,303.9941,0,U,56757,999,1134,0,.156E-5,0
NVS-01 (IRNSS-1J),2023-076A,2026-07-10T21:03:51.418080,1.00266738,.0003492,2.1126,243.2933,7.3281,123.6454,0,U,56759,999,1135,0,-.326E-5,0
NUSANTARA TIGA (SATRIA),2023-086A,2026-07-10T06:49:38.585568,1.00272962,.00027675,0.0339,8.7255,336.1803,191.7243,0,U,57045,999,999,0,-.224E-5,0
H2SAT (HEINRICH HERTZ),2023-093A,2026-07-10T01:37:53.987808,1.00273286,.00007987,0.0175,102.3909,32.1109,178.6751,0,U,57213,999,1114,0,.14E-6,0
SYRACUSE 4B,2023-093B,2026-07-10T05:01:09.998400,1.00270888,.00004608,0.0032,107.9864,123.6281,125.3494,0,U,57214,999,719,0,-.43E-6,0
